NORAD_CAT_ID,OBJECT_NAME,OBJECT_TYPE,EPOCH,MEAN_MOTION,ECCENTRICITY,INCLINATION,RA_OF_ASC_NODE,ARG_OF_PERICENTER,MEAN_ANOMALY,BSTAR,MEAN_MOTION_DOT,MEAN_MOTION_DDOT,TLE_LINE0,TLE_LINE1,TLE_LINE2,SEMIMAJOR_AXIS,PERIOD,APOGEE,PERIGEE,DECAYED
53728.0,STARLINK-4640,PAYLOAD,2022-11-08 14:00:01,15.21429663,0.000171,53.2164,318.096,47.0267,156.8737,-0.056065,-0.0117384,0.0,0 STARLINK-4640,1 53728U 22107AE  22312.58334491 -.01173840  00000-0 -56065-1 0  9993,2 53728  53.2164 318.0960 0001710  47.0267 156.8737 15.21429663  1300,6879.6640000000025,94.648,502.706,500.353,0.0
53728.0,STARLINK-4640,PAYLOAD,2022-11-08 22:00:00,15.2061761,0.0001574,53.2166,316.5696,48.3422,181.763,-0.057556,-0.01176315,0.0,0 STARLINK-4640,1 53728U 22107AE  22312.91667824 -.01176315  00000-0 -57556-1 0  9995,2 53728  53.2166 316.5696 0001574  48.3422 181.7630 15.20617610  1305,6882.114000000001,94.698,505.062,502.895,0.0
53728.0,STARLINK-4640,PAYLOAD,2022-11-09 06:00:00,15.19795015,0.0001549,53.2169,315.0481,51.7655,203.5704,-0.058276,-0.01163684,0.0,0 STARLINK-4640,1 53728U 22107AE  22313.25001157 -.01163684  00000-0 -58276-1 0  9999,2 53728  53.2169 315.0481 0001549  51.7655 203.5704 15.19795015 10301,6884.597,94.75,507.528,505.395,0.0
53728.0,STARLINK-4640,PAYLOAD,2022-11-09 14:00:01,15.18998335,0.0001686,53.2162,313.5274,41.6425,237.93400000000003,-0.060958,-0.01187257,0.0,0 STARLINK-4640,1 53728U 22107AE  22313.58334491 -.01187257  00000-0 -60958-1 0  9997,2 53728  53.2162 313.5274 0001686  41.6425 237.9340 15.18998335  1308,6887.004,94.799,510.03,507.707,0.0
53728.0,STARLINK-4640,PAYLOAD,2022-11-09 22:00:01,15.18159706,0.0001599,53.2167,312.0068,38.9268,263.9972,-0.060492,-0.01152669,0.0,0 STARLINK-4640,1 53728U 22107AE  22313.91668981 -.01152669  00000-0 -60492-1 0  9990,2 53728  53.2167 312.0068 0001599  38.9268 263.9972 15.18159706  1306,6889.54,94.852,512.506,510.30300000000005,0.0
53728.0,STARLINK-4640,PAYLOAD,2022-11-10 06:00:00,15.1737808,0.0001411,53.2167,310.491,51.4281,273.7091,-0.064396,-0.01195835,0.0,0 STARLINK-4640,1 53728U 22107AE  22314.25001157 -.01195835  00000-0 -64396-1 0  9993,2 53728  53.2167 310.4910 0001411  51.4281 273.7091 15.17378080 10456,6891.905,94.901,514.743,512.798,0.0
53728.0,STARLINK-4640,PAYLOAD,2022-11-10 14:00:01,15.1656548,0.0001727,53.2163,308.9759,35.9336,310.5192,-0.066076,-0.01198483,0.0,0 STARLINK-4640,1 53728U 22107AE  22314.58334491 -.01198483  00000-0 -66076-1 0  9998,2 53728  53.2163 308.9759 0001727  35.9336 310.5192 15.16565480  1300,6894.3669999999975,94.951,517.423,515.0409999999998,0.0
53728.0,STARLINK-4640,PAYLOAD,2022-11-10 16:00:00,15.16329664,0.0001871,53.2169,308.5972,37.4331,44.2125,-0.063883,-0.01154592,0.0,0 STARLINK-4640,1 53728U 22107AE  22314.66667824 -.01154592  00000-0 -63883-1 0  9992,2 53728  53.2169 308.5972 0001871  37.4331  44.2125 15.16329664 10524,6895.081999999999,94.966,518.237,515.6569999999998,0.0
53728.0,STARLINK-4640,PAYLOAD,2022-11-10 22:00:00,15.15717634,0.000166,53.2168,307.4615,36.6903,330.1176,-0.064808,-0.01151192,0.0,0 STARLINK-4640,1 53728U 22107AE  22314.91667824 -.01151192  00000-0 -64808-1 0  9991,2 53728  53.2168 307.4615 0001660  36.6903 330.1176 15.15717634  1303,6896.938,95.005,519.948,517.658,0.0
53728.0,STARLINK-4640,PAYLOAD,2022-11-11 14:00:01,15.14118339,0.0001876,53.2164,304.4415,33.6637,10.8719,-0.0703179999999999,-0.01190127,0.0,0 STARLINK-4640,1 53728U 22107AE  22315.58334491 -.01190127  00000-0 -70318-1 0  9990,2 53728  53.2164 304.4415 0001876  33.6637  10.8719 15.14118339 10664,6901.794,95.105,524.953,522.364,0.0
53728.0,STARLINK-4640,PAYLOAD,2022-11-11 22:00:00,15.1327866,0.0001853,53.2168,302.9327,32.6948,29.2583,-0.069638,-0.01153993,0.0,0 STARLINK-4640,1 53728U 22107AE  22315.91667824 -.01153993  00000-0 -69638-1 0  9999,2 53728  53.2168 302.9327 0001853  32.6948  29.2583 15.13278660  1309,6904.346,95.158,527.491,524.932,0.0
53728.0,STARLINK-4640,PAYLOAD,2022-11-12 06:00:00,15.12494148,0.0001664,53.2169,301.4283,44.6004,33.7637,-0.073887,-0.011941,0.0,0 STARLINK-4640,1 53728U 22107AE  22316.25001157 -.01194100  00000-0 -73887-1 0  9994,2 53728  53.2169 301.4283 0001664  44.6004  33.7637 15.12494148 10761,6906.734,95.207,529.748,527.4490000000002,0.0
53728.0,STARLINK-4640,PAYLOAD,2022-11-12 14:00:01,15.11651504,0.0001902,53.2168,299.9245,36.5047,57.3226,-0.072947,-0.01154762,0.0,0 STARLINK-4640,1 53728U 22107AE  22316.58334491 -.01154762  00000-0 -72947-1 0  9996,2 53728  53.2168 299.9245 0001902  36.5047  57.3226 15.11651504  1307,6909.3,95.26,532.479,529.851,0.0
53728.0,STARLINK-4640,PAYLOAD,2022-11-12 22:00:00,15.10868332,0.0001938,53.2167,298.421,35.1713,73.1109,-0.077337,-0.01194317,0.0,0 STARLINK-4640,1 53728U 22107AE  22316.91667824 -.01194317  00000-0 -77337-1 0  9990,2 53728  53.2167 298.4210 0001938  35.1713  73.1109 15.10868332 10861,6911.688,95.309,534.8919999999998,532.2130000000002,0.0
53728.0,STARLINK-4640,PAYLOAD,2022-11-13 14:00:01,15.0915778,0.0001797,53.2166,295.4240000000001,34.5405,99.7557,-0.029125,-0.00440132,0.0,0 STARLINK-4640,1 53728U 22107AE  22317.58334491 -.00440132  00000-0 -29125-1 0  9995,2 53728  53.2166 295.4240 0001797  34.5405  99.7557 15.09157780 10962,6916.909000000002,95.417,540.0169999999998,537.531,0.0
53728.0,STARLINK-4640,PAYLOAD,2022-11-13 22:00:00,15.08833577,0.0001200999999999,53.2146,293.9207,358.9071,147.0454,0.0023152,0.00036744,0.0,0 STARLINK-4640,1 53728U 22107AE  22317.91667824  .00036744  00000-0  23152-2 0  9994,2 53728  53.2146 293.9207 0001201 358.9071 147.0454 15.08833577  1303,6917.9,95.438,540.596,538.934,0.0
53728.0,STARLINK-4640,PAYLOAD,2022-11-14 14:00:01,15.08901672,0.000143,53.2149,290.9296,3.1834,165.9786,-0.0066634,-0.0010497,0.0,0 STARLINK-4640,1 53728U 22107AE  22318.58334491 -.00104970  00000-0 -66634-2 0  9990,2 53728  53.2149 290.9296 0001430   3.1834 165.9786 15.08901672 11110,6917.691999999999,95.434,540.5459999999998,538.568,0.0
53728.0,STARLINK-4640,PAYLOAD,2022-11-14 22:00:00,15.088223800000002,0.0001278,53.2147,289.4317,14.2826,166.5114,0.00012687,1.731e-05,0.0,0 STARLINK-4640,1 53728U 22107AE  22318.91667824  .00001731  00000-0  12687-3 0  9995,2 53728  53.2147 289.4317 0001278  14.2826 166.5114 15.08822380  1309,6917.934,95.439,540.683,538.915,0.0
53728.0,STARLINK-4640,PAYLOAD,2022-11-15 08:00:01,15.08797846,0.000159,53.2143,287.563,14.0339,271.2989,0.0029706,0.00047252,0.0,0 STARLINK-4640,1 53728U 22107AE  22319.33335648  .00047252  00000-0  29706-2 0  9995,2 53728  53.2143 287.5630 0001590  14.0339 271.2989 15.08797846 11220,6918.009,95.44,540.974,538.774,0.0
53728.0,STARLINK-4640,PAYLOAD,2022-11-15 14:00:01,15.08845476,0.0001453999999999,53.2149,286.4396,14.2341,189.7079,-0.0013186,-0.00021215,0.0,0 STARLINK-4640,1 53728U 22107AE  22319.58334491 -.00021215  00000-0 -13186-2 0  9995,2 53728  53.2149 286.4396 0001454  14.2341 189.7079 15.08845476  1301,6917.864000000001,95.437,540.735,538.7230000000002,0.0
53728.0,STARLINK-4640,PAYLOAD,2022-11-15 22:00:00,15.08841258,0.0001299,53.2161,284.9426,19.867,195.6645,0.0016014,0.00025291,0.0,0 STARLINK-4640,1 53728U 22107AE  22319.91667824  .00025291  00000-0  16014-2 0  9990,2 53728  53.2161 284.9426 0001299  19.8670 195.6645 15.08841258  1304,6917.877,95.437,540.64,538.8430000000002,0.0
53728.0,STARLINK-4640,PAYLOAD,2022-11-16 06:00:00,15.08843098,0.0001588,53.216,283.449,17.9979,209.1437,0.0016572,0.00026187,0.0,0 STARLINK-4640,1 53728U 22107AE  22320.25001157  .00026187  00000-0  16572-2 0  9994,2 53728  53.2160 283.4490 0001588  17.9979 209.1437 15.08843098 11361,6917.871,95.437,540.8340000000002,538.637,0.0
53728.0,STARLINK-4640,PAYLOAD,2022-11-16 14:00:01,15.08861493,0.0001553,53.2163,281.9534,17.4113,221.4032,0.00076053,0.00011844,0.0,0 STARLINK-4640,1 53728U 22107AE  22320.58335648  .00011844  00000-0  76053-3 0  9990,2 53728  53.2163 281.9534 0001553  17.4113 221.4032 15.08861493  1303,6917.815,95.436,540.754,538.605,0.0
53728.0,STARLINK-4640,PAYLOAD,2022-11-16 22:00:08,15.08898956,0.0001462,53.2169,280.458,20.3858,230.4245,-0.0058275,-0.00091998,0.0,0 STARLINK-4640,1 53728U 22107AE  22320.91675926 -.00091998  00000-0 -58275-2 0  9998,2 53728  53.2169 280.4580 0001462  20.3858 230.4245 15.08898956  1302,6917.7,95.434,540.577,538.554,0.0
53728.0,STARLINK-4640,PAYLOAD,2022-11-17 06:00:00,15.08836689,0.000169,53.2163,278.9615,23.0568,238.9,0.0020109,0.00031858,0.0,0 STARLINK-4640,1 53728U 22107AE  22321.25001157  .00031858  00000-0  20109-2 0  9997,2 53728  53.2163 278.9615 0001690  23.0568 238.9000 15.08836689 11519,6917.891,95.438,540.925,538.586,0.0
53728.0,STARLINK-4640,PAYLOAD,2022-11-17 14:00:01,15.08874234,0.0001606,53.2149,277.4611,27.5373,246.0306,-0.0035322,-0.00056118,0.0,0 STARLINK-4640,1 53728U 22107AE  22321.58334491 -.00056118  00000-0 -35322-2 0  9994,2 53728  53.2149 277.4611 0001606  27.5373 246.0306 15.08874234  1306,6917.776,95.435,540.752,538.53,0.0
53728.0,STARLINK-4640,PAYLOAD,2022-11-17 22:00:00,15.08862762,0.0001588,53.2149,275.9642,36.0484,249.1235,-0.0020811,-0.00033277,0.0,0 STARLINK-4640,1 53728U 22107AE  22321.91667824 -.00033277  00000-0 -20811-2 0  9998,2 53728  53.2149 275.9642 0001588  36.0484 249.1235 15.08862762  1308,6917.811,95.436,540.774,538.577,0.0
53728.0,STARLINK-4640,PAYLOAD,2022-11-18 14:00:01,15.088533800000002,0.0001798,53.2147,272.9716,35.3379,273.0258,-0.0017704999999999,-0.00028366,0.0,0 STARLINK-4640,1 53728U 22107AE  22322.58334491 -.00028366  00000-0 -17705-2 0  9994,2 53728  53.2147 272.9716 0001798  35.3379 273.0258 15.08853380 11716,6917.839,95.437,540.948,538.461,0.0
53728.0,STARLINK-4640,PAYLOAD,2022-11-18 22:00:00,15.08841412,0.000183,53.2149,271.4747,41.8026,278.1576,-0.00078095,-0.00012696,0.0,0 STARLINK-4640,1 53728U 22107AE  22322.91667824 -.00012696  00000-0 -78095-3 0  9999,2 53728  53.2149 271.4747 0001830  41.8026 278.1576 15.08841412  1300,6917.876,95.437,541.007,538.475,0.0
